NORAD_CAT_ID,OBJECT_NAME,OBJECT_TYPE,EPOCH,MEAN_MOTION,ECCENTRICITY,INCLINATION,RA_OF_ASC_NODE,ARG_OF_PERICENTER,MEAN_ANOMALY,BSTAR,MEAN_MOTION_DOT,MEAN_MOTION_DDOT,TLE_LINE0,TLE_LINE1,TLE_LINE2,SEMIMAJOR_AXIS,PERIOD,APOGEE,PERIGEE,DECAYED
55953.0,STARLINK-5889,PAYLOAD,2024-03-12 21:47:54,14.98320817,0.0002873,69.999,297.1207,271.3169,88.7661,-3.6662e-05,-5.3e-06,0.0,0 STARLINK-5889,1 55953U 23037AR  24072.90826992 -.00000530  00000-0 -36662-4 0  9999,2 55953  69.9990 297.1207 0002873 271.3169  88.7661 14.98320817 55603,6950.221,96.108,574.083,570.089,0.0
55953.0,STARLINK-5889,PAYLOAD,2024-03-13 01:00:10,14.98321236,0.0002867,69.999,296.784,271.3456,88.7375,-3.1315e-05,-4.67e-06,0.0,0 STARLINK-5889,1 55953U 23037AR  24073.04179017 -.00000467  00000-0 -31315-4 0  9993,2 55953  69.9990 296.7840 0002867 271.3456  88.7375 14.98321236 55960,6950.22,96.108,574.078,570.092,0.0
55953.0,STARLINK-5889,PAYLOAD,2024-03-13 21:49:54,14.98333117,0.00028,69.9995,294.5958,272.139,87.9448,3.0549e-05,2.72e-06,0.0,0 STARLINK-5889,1 55953U 23037AR  24073.90966179  .00000272  00000-0  30549-4 0  9991,2 55953  69.9995 294.5958 0002800 272.1390  87.9448 14.98333117 56092,6950.183,96.107,573.994,570.102,0.0
55953.0,STARLINK-5889,PAYLOAD,2024-03-14 01:02:10,14.98332828,0.0002814,69.9991,294.2591,272.0848,87.9989,2.3086e-05,1.82e-06,0.0,0 STARLINK-5889,1 55953U 23037AR  24074.04318196  .00000182  00000-0  23086-4 0  9995,2 55953  69.9991 294.2591 0002814 272.0848  87.9989 14.98332828 55772,6950.184,96.107,574.005,570.093,0.0
55953.0,STARLINK-5889,PAYLOAD,2024-03-14 21:51:55,14.983315,0.0003056,69.9983,292.0699,273.0836,86.9973,9.3336e-05,1.021e-05,0.0,0 STARLINK-5889,1 55953U 23037AR  24074.91105874  .00001021  00000-0  93336-4 0  9996,2 55953  69.9983 292.0699 0003056 273.0836  86.9973 14.98331500 55908,6950.188,96.107,574.177,569.929,0.0
55953.0,STARLINK-5889,PAYLOAD,2024-03-14 23:28:03,14.98332897,0.000303,69.9984,291.9017,272.7988,87.2824,0.00010761,1.191e-05,0.0,0 STARLINK-5889,1 55953U 23037AR  24074.97781733  .00001191  00000-0  10761-3 0  9994,2 55953  69.9984 291.9017 0003030 272.7988  87.2824 14.98332897 56255,6950.184,96.107,574.155,569.943,0.0
55953.0,STARLINK-5889,PAYLOAD,2024-03-15 21:53:56,14.98330514,0.0003003,69.9983,289.545,273.2521,86.8295,-6.4043e-05,-8.57e-06,0.0,0 STARLINK-5889,1 55953U 23037AR  24075.91246268 -.00000857  00000-0 -64043-4 0  9991,2 55953  69.9983 289.5450 0003003 273.2521  86.8295 14.98330514 56056,6950.191,96.107,574.143,569.969,0.0
55953.0,STARLINK-5889,PAYLOAD,2024-03-16 01:06:12,14.98331639,0.0002989,69.9983,289.2085,272.0026,88.079,-4.6776e-05,-6.51e-06,0.0,0 STARLINK-5889,1 55953U 23037AR  24076.04598123 -.00000651  00000-0 -46776-4 0  9991,2 55953  69.9983 289.2085 0002989 272.0026  88.0790 14.98331639 56419,6950.188,96.107,574.13,569.975,0.0
55953.0,STARLINK-5889,PAYLOAD,2024-03-16 21:55:57,14.98328651,0.0002859,69.9986,287.021,260.3423,99.7413,-4.275e-05,-6.03e-06,0.0,0 STARLINK-5889,1 55953U 23037AR  24076.91386161 -.00000603  00000-0 -42750-4 0  9999,2 55953  69.9986 287.0210 0002859 260.3423  99.7413 14.98328651 56203,6950.197,96.107,574.049,570.075,0.0
55953.0,STARLINK-5889,PAYLOAD,2024-03-16 23:32:05,14.98328538,0.0002863,69.9985,286.8525,260.9131,99.1704,-4.2701e-05,-6.02e-06,0.0,0 STARLINK-5889,1 55953U 23037AR  24076.98062176 -.00000602  00000-0 -42701-4 0  9998,2 55953  69.9985 286.8525 0002863 260.9131  99.1704 14.98328538 56217,6950.197,96.107,574.052,570.073,0.0
55953.0,STARLINK-5889,PAYLOAD,2024-03-17 20:21:50,14.98329656,0.0002969,69.9981,284.6629,264.4358,95.6463,3.5598e-05,3.32e-06,0.0,0 STARLINK-5889,1 55953U 23037AR  24077.84849868  .00000332  00000-0  35598-4 0  9999,2 55953  69.9981 284.6629 0002969 264.4358  95.6463 14.98329656 56687,6950.194,96.107,574.122,569.995,0.0
55953.0,STARLINK-5889,PAYLOAD,2024-03-17 21:57:58,14.98330753,0.0002944,69.9982,284.4949,263.4814,96.601,4.908e-05,4.93e-06,0.0,0 STARLINK-5889,1 55953U 23037AR  24077.91525754  .00000493  00000-0  49080-4 0  9991,2 55953  69.9982 284.4949 0002944 263.4814  96.6010 14.98330753 56353,6950.191,96.107,574.102,570.009,0.0
55953.0,STARLINK-5889,PAYLOAD,2024-03-17 23:34:06,14.98332031,0.0003009,69.998,284.3254,268.556,91.5254,5.664e-05,5.83e-06,0.0,0 STARLINK-5889,1 55953U 23037AR  24077.98201672  .00000583  00000-0  56640-4 0  9998,2 55953  69.9980 284.3254 0003009 268.5560  91.5254 14.98332031 56362,6950.187,96.107,574.143,569.96,0.0
55953.0,STARLINK-5889,PAYLOAD,2024-03-18 20:23:51,14.98329927,0.0003071,69.9978,282.1378,269.2443,90.8364,1.9106e-05,1.35e-06,0.0,0 STARLINK-5889,1 55953U 23037AR  24078.84989845  .00000135  00000-0  19106-4 0  9998,2 55953  69.9978 282.1378 0003071 269.2443  90.8364 14.98329927 56835,6950.193,96.107,574.193,569.924,0.0
55953.0,STARLINK-5889,PAYLOAD,2024-03-18 21:59:59,14.98329452,0.0003078,69.9978,281.9695,269.421,90.6596,1.35e-05,6.8e-07,0.0,0 STARLINK-5889,1 55953U 23037AR  24078.91665900  .00000068  00000-0  13500-4 0  9996,2 55953  69.9978 281.9695 0003078 269.4210  90.6596 14.98329452 56507,6950.195,96.107,574.199,569.92,0.0
55953.0,STARLINK-5889,PAYLOAD,2024-03-18 23:36:07,14.98330104,0.0003053,69.9979,281.8013,268.929,91.1519,2.1863e-05,1.68e-06,0.0,0 STARLINK-5889,1 55953U 23037AR  24078.98341838  .00000168  00000-0  21863-4 0  9996,2 55953  69.9979 281.8013 0003053 268.9290  91.1519 14.98330104 56514,6950.193,96.107,574.179,569.936,0.0
55953.0,STARLINK-5889,PAYLOAD,2024-03-19 22:01:59,14.98334687,0.0003001,69.9979,279.4443,269.9292,90.1523,1.3818e-05,7.2e-07,0.0,0 STARLINK-5889,1 55953U 23037AR  24079.91805411  .00000072  00000-0  13818-4 0  9997,2 55953  69.9979 279.4443 0003001 269.9292  90.1523 14.98334687 56996,6950.178,96.107,574.129,569.958,0.0
55953.0,STARLINK-5889,PAYLOAD,2024-03-20 14:03:20,14.98329758,0.0002831,69.9982,277.7615,266.0255,94.058,-2.5413e-05,-3.96e-06,0.0,0 STARLINK-5889,1 55953U 23037AR  24080.58565742 -.00000396  00000-0 -25413-4 0  9997,2 55953  69.9982 277.7615 0002831 266.0255  94.0580 14.98329758 56752,6950.194,96.107,574.026,570.091,0.0
55953.0,STARLINK-5889,PAYLOAD,2024-03-20 20:27:53,14.98327496,0.0002895,69.9983,277.0884,266.3408,93.742,-4.3439e-05,-6.11e-06,0.0,0 STARLINK-5889,1 55953U 23037AR  24080.85269923 -.00000611  00000-0 -43439-4 0  9997,2 55953  69.9983 277.0884 0002895 266.3408  93.7420 14.98327496 57136,6950.201,96.107,574.078,570.054,0.0
55953.0,STARLINK-5889,PAYLOAD,2024-03-20 22:04:01,14.98327165,0.0002905,69.9983,276.92,267.0911,92.9915,-4.6558e-05,-6.48e-06,0.0,0 STARLINK-5889,1 55953U 23037AR  24080.91945964 -.00000648  00000-0 -46558-4 0  9995,2 55953  69.9983 276.9200 0002905 267.0911  92.9915 14.98327165 56801,6950.202,96.107,574.086,570.048,0.0
55953.0,STARLINK-5889,PAYLOAD,2024-03-21 14:05:21,14.98332637,0.0002981,69.9981,275.2366,267.5095,92.5723,-1.4576e-05,-2.67e-06,0.0,0 STARLINK-5889,1 55953U 23037AR  24081.58705505 -.00000267  00000-0 -14576-4 0  9996,2 55953  69.9981 275.2366 0002981 267.5095  92.5723 14.98332637 56900,6950.185,96.107,574.122,569.978,0.0
55953.0,STARLINK-5889,PAYLOAD,2024-03-21 20:29:53,14.9833338,0.0002958,69.998,274.5629,268.453,91.629,-3.5603e-07,-9.7e-07,0.0,0 STARLINK-5889,1 55953U 23037AR  24081.85409377 -.00000097  00000-0 -35603-6 0  9991,2 55953  69.9980 274.5629 0002958 268.4530  91.6290 14.98333380 57288,6950.182,96.107,574.103,569.992,0.0
55953.0,STARLINK-5889,PAYLOAD,2024-03-21 22:06:01,14.98333546,0.0002955,69.998,274.3945,268.5165,91.5655,1.9889e-06,-6.9e-07,0.0,0 STARLINK-5889,1 55953U 23037AR  24081.92085346 -.00000069  00000-0  19889-5 0  9990,2 55953  69.9980 274.3945 0002955 268.5165  91.5655 14.98333546 56950,6950.182,96.107,574.101,569.993,0.0
55953.0,STARLINK-5889,PAYLOAD,2024-03-22 14:07:22,14.98330252,0.0002983,69.998,272.711,268.6463,91.4354,4.7501e-05,4.74e-06,0.0,0 STARLINK-5889,1 55953U 23037AR  24082.58845319  .00000474  00000-0  47501-4 0  9997,2 55953  69.9980 272.7110 0002983 268.6463  91.4354 14.98330252 57057,6950.192,96.107,574.13,569.984,0.0
55953.0,STARLINK-5889,PAYLOAD,2024-03-22 20:31:54,14.98330009,0.0002985,69.9982,272.0376,268.4137,91.668,4.0314e-05,3.88e-06,0.0,0 STARLINK-5889,1 55953U 23037AR  24082.85549334  .00000388  00000-0  40314-4 0  9994,2 55953  69.9982 272.0376 0002985 268.4137  91.6680 14.98330009 57430,6950.193,96.107,574.132,569.983,0.0
55953.0,STARLINK-5889,PAYLOAD,2024-03-22 22:08:02,14.98330366,0.0002983,69.9982,271.8693,268.4131,91.6686,4.3185e-05,4.22e-06,0.0,0 STARLINK-5889,1 55953U 23037AR  24082.92225299  .00000422  00000-0  43185-4 0  9991,2 55953  69.9982 271.8693 0002983 268.4131  91.6686 14.98330366 57107,6950.192,96.107,574.13,569.984,0.0
55953.0,STARLINK-5889,PAYLOAD,2024-03-23 12:33:15,14.98325511,0.0002878,69.9983,270.3544,267.449,92.634,-6.5796e-05,-8.78e-06,0.0,0 STARLINK-5889,1 55953U 23037AR  24083.52309992 -.00000878  00000-0 -65796-4 0  9990,2 55953  69.9983 270.3544 0002878 267.4490  92.6340 14.98325511 57538,6950.207,96.107,574.072,570.072,0.0
55953.0,STARLINK-5889,PAYLOAD,2024-03-23 22:10:04,14.98326771,0.0002886,69.9983,269.3445,268.3065,91.7763,-4.7667e-05,-6.62e-06,0.0,0 STARLINK-5889,1 55953U 23037AR  24083.92365925 -.00000662  00000-0 -47667-4 0  9990,2 55953  69.9983 269.3445 0002886 268.3065  91.7763 14.98326771 57250,6950.203,96.107,574.074,570.062,0.0
55953.0,STARLINK-5889,PAYLOAD,2024-03-24 12:35:16,14.98334652,0.0002982,69.9983,267.8287,269.7181,90.3637,2.6556e-05,2.24e-06,0.0,0 STARLINK-5889,1 55953U 23037AR  24084.52449185  .00000224  00000-0  26556-4 0  9994,2 55953  69.9983 267.8287 0002982 269.7181  90.3637 14.98334652 57687,6950.179,96.107,574.116,569.971,0.0
55953.0,STARLINK-5889,PAYLOAD,2024-03-24 14:11:24,14.9833524,0.0002973,69.9983,267.6604,269.6872,90.3946,3.3838e-05,3.11e-06,0.0,0 STARLINK-5889,1 55953U 23037AR  24084.59125108  .00000311  00000-0  33838-4 0  9995,2 55953  69.9983 267.6604 0002973 269.6872  90.3946 14.98335240 57355,6950.177,96.107,574.108,569.975,0.0
